NORAD_CAT_ID,OBJECT_NAME,OBJECT_TYPE,EPOCH,MEAN_MOTION,ECCENTRICITY,INCLINATION,RA_OF_ASC_NODE,ARG_OF_PERICENTER,MEAN_ANOMALY,BSTAR,MEAN_MOTION_DOT,MEAN_MOTION_DDOT,TLE_LINE0,TLE_LINE1,TLE_LINE2,SEMIMAJOR_AXIS,PERIOD,APOGEE,PERIGEE,DECAYED
27216,PSLV DEB,DEBRIS,2020-11-10 22:53:03,15.04030927,0.0031755,98.2416,313.8438,343.274,72.2754,0.00019061,2.592e-05,0.0,0 PSLV DEB,1 27216U 01049FL  20315.95351451 +.00002592 +00000+0 +19061-3 0  9993,2 27216  98.2416 313.8438 0031755 343.2740  72.2754 15.04030927024176,6932.619000000002,95.743,576.498,532.469,0.0
27216,PSLV DEB,DEBRIS,2020-11-11 12:05:05,15.040334,0.003165,98.2416,314.4295,341.4578,170.3778,0.00017803,2.416e-05,0.0,0 PSLV DEB,1 27216U 01049FL  20316.50354003 +.00002416 +00000+0 +17803-3 0  9998,2 27216  98.2416 314.4295 0031650 341.4578 170.3778 15.04033400024251,6932.611,95.743,576.418,532.535,0.0
27216,PSLV DEB,DEBRIS,2020-11-12 06:37:14,15.04038059,0.0031561999999999996,98.2416,315.2523,338.9297,32.0739,0.00018851,2.563e-05,0.0,0 PSLV DEB,1 27216U 01049FL  20317.27585917 +.00002563 +00000+0 +18851-3 0  9990,2 27216  98.2416 315.2523 0031562 338.9297  32.0739 15.04038059024374,6932.597,95.742,576.3430000000002,532.581,0.0
27216,PSLV DEB,DEBRIS,2020-11-13 18:28:10,15.04045034,0.0031371,98.2414,316.8436,334.0521,199.6945,0.00017522,2.377e-05,0.0,0 PSLV DEB,1 27216U 01049FL  20318.76956225 +.00002377 +00000-0 +17522-3 0  9997,2 27216 098.2414 316.8436 0031371 334.0521 199.6945 15.04045034024591,6932.576,95.742,576.189,532.692,0.0
27216,PSLV DEB,DEBRIS,2020-11-13 22:44:22,15.04046244,0.0031352,98.2414,317.0331,333.4652,83.0538,0.00017997,2.444e-05,0.0,0 PSLV DEB,1 27216U 01049FL  20318.94748341 +.00002444 +00000-0 +17997-3 0  9996,2 27216 098.2414 317.0331 0031352 333.4652 083.0538 15.04046244024627,6932.571999999999,95.742,576.172,532.702,0.0
27216,PSLV DEB,DEBRIS,2020-11-15 11:52:59,15.04053126,0.0031160999999999997,98.2415,318.6817,328.3731,182.8364,0.0001662,2.251e-05,0.0,0 PSLV DEB,1 27216U 01049FL  20320.49513076 +.00002251 +00000-0 +16620-3 0  9992,2 27216 098.2415 318.6817 0031161 328.3731 182.8364 15.04053126024850,6932.5509999999995,95.741,576.018,532.813,0.0
27216,PSLV DEB,DEBRIS,2020-11-15 18:22:08,15.04054061,0.0031136,98.2415,318.9696,327.4602,206.1216,0.00016228,2.196e-05,0.0,0 PSLV DEB,1 27216U 01049FL  20320.76537736 +.00002196 +00000-0 +16228-3 0  9993,2 27216 098.2415 318.9696 0031136 327.4602 206.1216 15.04054061024896,6932.5480000000025,95.741,575.998,532.828,0.0
27216,PSLV DEB,DEBRIS,2020-11-16 13:20:01,15.04057205,0.0031024,98.2416,319.8113,324.8346,164.6943,0.00015044,2.031e-05,0.0,0 PSLV DEB,1 27216U 01049FL  20321.55557133 +.00002031 +00000-0 +15044-3 0  9997,2 27216 098.2416 319.8113 0031024 324.8346 164.6943 15.04057205025016,6932.538000000001,95.741,575.911,532.896,0.0
27216,PSLV DEB,DEBRIS,2020-11-16 18:19:13,15.040580100000001,0.0031006000000000002,98.2416,320.0326,324.1345,209.7542,0.00015004,2.025e-05,0.0,0 PSLV DEB,1 27216U 01049FL  20321.76335249  .00002025  00000-0  15004-3 0  9991,2 27216  98.2416 320.0326 0031006 324.1345 209.7542 15.04058010 25042,6932.536,95.741,575.896,532.906,0.0
27216,PSLV DEB,DEBRIS,2020-11-17 04:59:43,15.04059681,0.0030953000000000005,98.2418,320.5064,322.6385,98.109,0.00014246,1.919e-05,0.0,0 PSLV DEB,1 27216U 01049FL  20322.20813834 +.00001919 +00000-0 +14246-3 0  9990,2 27216 098.2418 320.5064 0030953 322.6385 098.1090 15.04059681025116,6932.531,95.741,575.854,532.937,0.0
27216,PSLV DEB,DEBRIS,2020-11-17 18:16:18,15.04062282,0.0030892,98.2418,321.0956,320.7639,213.4115,0.00014725,1.986e-05,0.0,0 PSLV DEB,1 27216U 01049FL  20322.76132098 +.00001986 +00000-0 +14725-3 0  9993,2 27216 098.2418 321.0956 0030892 320.7639 213.4115 15.04062282025194,6932.523,95.741,575.804,532.972,0.0
27216,PSLV DEB,DEBRIS,2020-11-18 00:10:32,15.04063455,0.0030870999999999997,98.2419,321.3577,319.9247,105.4118,0.00014836,2.002e-05,0.0,0 PSLV DEB,1 27216U 01049FL  20323.00731801  .00002002  00000-0  14836-3 0  9991,2 27216  98.2419 321.3577 0030871 319.9247 105.4118 15.04063455 25229,6932.519,95.741,575.785,532.9830000000002,0.0
27216,PSLV DEB,DEBRIS,2020-11-18 04:56:51,15.04064307,0.0030849000000000002,98.242,321.5695,319.2574,102.00399999999999,0.00014953,2.018e-05,0.0,0 PSLV DEB,1 27216U 01049FL  20323.20614762 +.00002018 +00000-0 +14953-3 0  9996,2 27216 098.2420 321.5695 0030849 319.2574 102.0040 15.04064307025263,6932.516,95.741,575.768,532.995,0.0
27216,PSLV DEB,DEBRIS,2020-11-18 19:35:25,15.04066376,0.0030797,98.242,322.2194,317.1743,165.6119,0.00014046,1.891e-05,0.0,0 PSLV DEB,1 27216U 01049FL  20323.81626480 +.00001891 +00000-0 +14046-3 0  9994,2 27216 098.2420 322.2194 0030797 317.1743 165.6119 15.04066376025352,6932.51,95.74,575.725,533.025,0.0
27216,PSLV DEB,DEBRIS,2020-11-19 06:16:17,15.04068061,0.0030737,98.2421,322.6934,315.6226,55.4331,0.00013792,1.856e-05,0.0,0 PSLV DEB,1 27216U 01049FL  20324.26130900  .00001856  00000-0  13792-3 0  9999,2 27216  98.2421 322.6934 0030737 315.6226  55.4331 15.04068061 25414,6932.505,95.74,575.678,533.061,0.0
27216,PSLV DEB,DEBRIS,2020-11-19 13:09:24,15.04069186,0.0030713,98.2421,322.9991,314.6286,168.9044,0.00013602,1.829e-05,0.0,0 PSLV DEB,1 27216U 01049FL  20324.54820394 +.00001829 +00000-0 +13602-3 0  9993,2 27216 098.2421 322.9991 0030713 314.6286 168.9044 15.04069186025464,6932.501,95.74,575.658,533.075,0.0
27216,PSLV DEB,DEBRIS,2020-11-20 06:13:17,15.04072416,0.0030649,98.2422,323.7565,312.1537,58.9488,0.00014715,1.985e-05,0.0,0 PSLV DEB,1 27216U 01049FL  20325.25922675 +.00001985 +00000-0 +14715-3 0  9996,2 27216 098.2422 323.7565 0030649 312.1537 058.9488 15.04072416025573,6932.491,95.74,575.604,533.109,0.0
27216,PSLV DEB,DEBRIS,2020-11-20 18:07:10,15.040742100000001,0.003062,98.2422,324.2847,310.4102,223.3986,0.00014352,1.934e-05,0.0,0 PSLV DEB,1 27216U 01049FL  20325.75498450  .00001934  00000-0  14352-3 0  9991,2 27216  98.2422 324.2847 0030620 310.4102 223.3986 15.04074210 25643,6932.486,95.74,575.578,533.124,0.0
27216,PSLV DEB,DEBRIS,2020-11-21 04:47:59,15.040757999999999,0.0030583000000000003,98.2421,324.7587,308.8473,113.0353,0.00014254,1.921e-05,0.0,0 PSLV DEB,1 27216U 01049FL  20326.19999050 +.00001921 +00000-0 +14254-3 0  9999,2 27216 098.2421 324.7587 0030583 308.8473 113.0353 15.04075800025715,6932.481,95.74,575.548,533.144,0.0
27216,PSLV DEB,DEBRIS,2020-11-21 19:26:44,15.04078112,0.0030563,98.242,325.4089,306.6892,177.4185,0.00014228,1.917e-05,0.0,0 PSLV DEB,1 27216U 01049FL  20326.81023238  .00001917  00000-0  14228-3 0  9990,2 27216  98.2420 325.4089 0030563 306.6892 177.4185 15.04078112 25804,6932.474,95.74,575.5269999999998,533.151,0.0
27216,PSLV DEB,DEBRIS,2020-11-22 11:32:09,15.04082662,0.0030544,98.242,326.1231,304.3108,207.7668,0.00017350000000000002,2.354e-05,0.0,0 PSLV DEB,1 27216U 01049FL  20327.48066889 +.00002354 +00000-0 +17350-3 0  9998,2 27216 098.2420 326.1231 0030544 304.3108 207.7668 15.04082662025904,6932.46,95.73899999999999,575.499,533.15,0.0
27216,PSLV DEB,DEBRIS,2020-11-23 04:42:14,15.04086459,0.0030535000000000002,98.2418,326.8852,301.7673,121.2141,0.00018089,2.458e-05,0.0,0 PSLV DEB,1 27216U 01049FL  20328.19599715  .00002458  00000-0  18089-3 0  9991,2 27216  98.2418 326.8852 0030535 301.7673 121.2141 15.04086459 26012,6932.448,95.73899999999999,575.482,533.145,0.0
27216,PSLV DEB,DEBRIS,2020-11-23 11:29:11,15.04087733,0.0030533,98.2417,327.1862,300.7667,211.53599999999997,0.00018066,2.455e-05,0.0,0 PSLV DEB,1 27216U 01049FL  20328.47860976 +.00002455 +00000-0 +18066-3 0  9994,2 27216 098.2417 327.1862 0030533 300.7667 211.5360 15.04087733026052,6932.444,95.73899999999999,575.476,533.143,0.0
27216,PSLV DEB,DEBRIS,2020-11-23 19:20:47,15.04089283,0.0030544,98.2416,327.5351,299.5906,184.8949,0.00018032,2.45e-05,0.0,0 PSLV DEB,1 27216U 01049FL  20328.80610160 +.00002450 +00000-0 +18032-3 0  9997,2 27216 098.2416 327.5351 0030544 299.5906 184.8949 15.04089283026104,6932.44,95.73899999999999,575.479,533.13,0.0
27216,PSLV DEB,DEBRIS,2020-11-24 06:15:31,15.04091008,0.0030553,98.2415,328.0195,297.9641,126.9576,0.00016874,2.288e-05,0.0,0 PSLV DEB,1 27216U 01049FL  20329.26077931 +.00002288 +00000-0 +16874-3 0  9992,2 27216 098.2415 328.0195 0030553 297.9641 126.9576 15.04091008026171,6932.434,95.73899999999999,575.48,533.119,0.0
27216,PSLV DEB,DEBRIS,2020-11-24 11:26:15,15.04092058,0.0030556999999999997,98.2414,328.2494,297.1954,215.4358,0.00016643,2.256e-05,0.0,0 PSLV DEB,1 27216U 01049FL  20329.47656654  .00002256  00000-0  16643-3 0  9999,2 27216  98.2414 328.2494 0030557 297.1954 215.4358 15.04092058 26209,6932.431,95.73899999999999,575.48,533.113,0.0
27216,PSLV DEB,DEBRIS,2020-11-24 19:17:52,15.04093254,0.0030561,98.2412,328.5983,296.0351,188.8783,0.00015953,2.159e-05,0.0,0 PSLV DEB,1 27216U 01049FL  20329.80407584 +.00002159 +00000-0 +15953-3 0  9997,2 27216 098.2412 328.5983 0030561 296.0351 188.8783 15.04093254026256,6932.427,95.73899999999999,575.479,533.106,0.0
27216,PSLV DEB,DEBRIS,2020-11-25 12:51:45,15.04096233,0.003059,98.2408,329.3779,293.4215,191.9175,0.00014278,1.925e-05,0.0,0 PSLV DEB,1 27216U 01049FL  20330.53594215  .00001925  00000-0  14278-3 0  9996,2 27216  98.2408 329.3779 0030590 293.4215 191.9175 15.04096233 26367,6932.418000000002,95.73899999999999,575.49,533.077,0.0
27216,PSLV DEB,DEBRIS,2020-11-26 11:20:24,15.04102781,0.0030633,98.2405,330.3755,290.068,223.4148,0.00018157,2.469e-05,0.0,0 PSLV DEB,1 27216U 01049FL  20331.47250584 +.00002469 +00000-0 +18157-3 0  9992,2 27216 098.2405 330.3755 0030633 290.0680 223.4148 15.04102781026500,6932.398,95.738,575.499,533.0269999999998,0.0
27216,PSLV DEB,DEBRIS,2020-11-26 23:40:03,15.04105378,0.0030667,98.2402,330.9226,288.2579,124.7984,0.00018682,2.542e-05,0.0,0 PSLV DEB,1 27216U 01049FL  20331.98615417  .00002542  00000-0  18682-3 0  9993,2 27216  98.2402 330.9226 0030667 288.2579 124.7984 15.04105378 26583,6932.39,95.738,575.515,532.996,0.0
